{
    "links": {
        "self": "http://www.neowsapp.com/rest/v1/neo/3825238?api_key=iIulBulltgU6a56xZRHN4H3l9WmuAYTsLGpBGhQ2"
    },
    "id": "3825238",
    "neo_reference_id": "3825238",
    "name": "(2018 LT5)",
    "designation": "2018 LT5",
    "nasa_jpl_url": "http://ssd.jpl.nasa.gov/sbdb.cgi?sstr=3825238",
    "absolute_magnitude_h": 24.9,
    "estimated_diameter": {
        "kilometers": {
            "estimated_diameter_min": 0.0278326768,
            "estimated_diameter_max": 0.0622357573
        },
        "meters": {
            "estimated_diameter_min": 27.8326768072,
            "estimated_diameter_max": 62.2357573367
        },
        "miles": {
            "estimated_diameter_min": 0.0172944182,
            "estimated_diameter_max": 0.0386714948
        },
        "feet": {
            "estimated_diameter_min": 91.3145593761,
            "estimated_diameter_max": 204.1855621004
        }
    },
    "is_potentially_hazardous_asteroid": false,
    "close_approach_data": [
        {
            "close_approach_date": "2018-06-06",
            "close_approach_date_full": "2018-Jun-06 15:57",
            "epoch_date_close_approach": 1528300620000,
            "relative_velocity": {
                "kilometers_per_second": "18.8714562369",
                "kilometers_per_hour": "67937.2424528872",
                "miles_per_hour": "42213.5604563509"
            },
            "miss_distance": {
                "astronomical": "0.0238377746",
                "lunar": "9.2728943194",
                "kilometers": "3566080.305700102",
                "miles": "2215859.5511893276"
            },
            "orbiting_body": "Earth"
        }
    ],
    "orbital_data": {
        "orbit_id": "2",
        "orbit_determination_date": "2018-06-19 06:30:27",
        "first_observation_date": "2018-06-14",
        "last_observation_date": "2018-06-19",
        "data_arc_in_days": 5,
        "observations_used": 12,
        "orbit_uncertainty": "9",
        "minimum_orbit_intersection": ".00221103",
        "jupiter_tisserand_invariant": "3.815",
        "epoch_osculation": "2458284.5",
        "eccentricity": ".640586414954571",
        "semi_major_axis": "1.778068825455754",
        "inclination": "8.329699101313524",
        "ascending_node_longitude": "84.66251512989838",
        "orbital_period": "866.0067524121218",
        "perihelion_distance": ".6390620910145675",
        "perihelion_argument": "83.39600114407588",
        "aphelion_distance": "2.91707555989694",
        "perihelion_time": "2458225.939944998411",
        "mean_anomaly": "24.34348201310509",
        "mean_motion": ".415701146668058",
        "equinox": "J2000",
        "orbit_class": {
            "orbit_class_type": "APO",
            "orbit_class_description": "Near-Earth asteroid orbits which cross the Earth’s orbit similar to that of 1862 Apollo",
            "orbit_class_range": "a (semi-major axis) > 1.0 AU; q (perihelion) < 1.017 AU"
        }
    },
    "is_sentry_object": false
}